[{"OBJECT_NAME":"POLYITAN-1","OBJECT_ID":"2014-033AJ","EPOCH":"2026-03-09T22:27:50.258304","MEAN_MOTION":15.29568085,"ECCENTRICITY":0.00093607,"INCLINATION":98.1053,"RA_OF_ASC_NODE":86.0432,"ARG_OF_PERICENTER":127.248,"MEAN_ANOMALY":232.9614,"EPHEMERIS_TYPE":0,"CLASSIFICATION_TYPE":"U","NORAD_CAT_ID":40042,"ELEMENT_SET_NO":999,"REV_AT_EPOCH":63840,"BSTAR":0.00083772474,"MEAN_MOTION_DOT":0.00024003,"MEAN_MOTION_DDOT":0},{"OBJECT_NAME":"STARLINK-35682","OBJECT_ID":"2025-262M","EPOCH":"2026-03-08T23:39:11.976192","MEAN_MOTION":15.27578046,"ECCENTRICITY":0.00016081,"INCLINATION":43.0003,"RA_OF_ASC_NODE":300.5887,"ARG_OF_PERICENTER":277.903,"MEAN_ANOMALY":82.1639,"EPHEMERIS_TYPE":0,"CLASSIFICATION_TYPE":"U","NORAD_CAT_ID":66467,"ELEMENT_SET_NO":999,"REV_AT_EPOCH":1879,"BSTAR":0.001003905,"MEAN_MOTION_DOT":0.00027465,"MEAN_MOTION_DDOT":0}]
